QIANFAN-33              
1 61566U 24185Q   25323.25984704  .00000574  00000+0  40550-3 0  9990
2 61566  88.9793  81.4206 0008133  51.8534 308.3375 13.96525697 65881
QIANFAN-34              
1 61567U 24185R   25323.25014722  .00000581  00000+0  37029-3 0  9990
2 61567  88.9769  81.0168 0007299  61.0996 299.0915 14.02275961 66066
QIANFAN-35              
1 61568U 24185S   25323.29208720  .00001040  00000+0  41430-3 0  9990
2 61568  88.9797  79.6268 0006784  21.4626 338.6852 14.27910319 66835
QIANFAN-36              
1 61569U 24185T   25323.26908101  .00000167  00000+0  22251-3 0  9997
2 61569  88.9776  83.4851 0007776 109.0276 251.1721 13.55576826 64743
QIANFAN-37              
1 62238U 24232B   25323.21782686  .00000186  00000+0  27034-3 0  9992
2 62238  89.0040  43.7000 0002373 122.2084 237.9297 13.50984418 95996
QIANFAN-38              
1 62239U 24232C   25323.24244629  .00000186  00000+0  26957-3 0  9999
2 62239  89.0047  43.6117 0012821 259.6466 100.3240 13.50973711 96053
QIANFAN-39              
1 62240U 24232D   25323.25699227  .00000753  00000+0  31318-3 0  9997
2 62240  89.0038  39.9913 0017595 149.8096 210.4115 14.25358028 98045
QIANFAN-40              
1 62241U 24232E   25323.27535852  .00000185  00000+0  26759-3 0  9995
2 62241  89.0075  43.1864 0011738 268.4593  91.5214 13.50973357 96425
